25417,ORBCOMM FM16,1998,100.29,-1.0,-,44.99,Inactive,0,LEO,Eastern Range Airspace,ORBCOMM,Unknown,Unknown,Pegasus,1 25417U 98046E   24063.09097677  .00001764  00000+0  65204-3 0  9993,2 25417  44.9935 244.4718 0004005  97.4594 262.6708 14.35814051336692,14.35814051,0.0004005,LEO
25418,ORBCOMM FM15,1998,100.31,45.0,-,45.0,Inactive,1,LEO,Eastern Range Airspace,ORBCOMM,Commercial,Communications,Pegasus,1 25418U 98046F   24062.61727872  .00001508  00000+0  56766-3 0  9997,2 25418  44.9964 250.6108 0003608  96.6306 263.4952 14.35553079336417,14.35553079,0.0003608,LEO
25419,ORBCOMM FM14,1998,100.3,45.0,-,45.0,Inactive,1,LEO,Eastern Range Airspace,ORBCOMM,Commercial,Communications,Pegasus,1 25419U 98046G   24062.79129488  .00001704  00000+0  63322-3 0  9990,2 25419  44.9952 248.9902 0002385  89.5220 284.8411 14.35696800336398,14.356968,0.0002385,LEO
25475,ORBCOMM FM21,1998,100.35,45.0,-,45.01,Inactive,1,LEO,Eastern Range Airspace,ORBCOMM,Commercial,Communications,Pegasus,1 25475U 98053A   24063.16750093  .00001189  00000+0  46260-3 0  9993,2 25475  45.0105 335.9517 0001596 358.3629   1.7212 14.35014689329862,14.35014689,0.0001596,LEO
25476,ORBCOMM FM22,1998,100.31,-1.0,-,45.01,Inactive,0,LEO,Eastern Range Airspace,ORBCOMM,Unknown,Unknown,Pegasus,1 25476U 98053B   24063.09920887  .00001414  00000+0  53603-3 0  9996,2 25476  45.0100 333.8239 0003213   7.7308 352.3588 14.35483079329878,14.35483079,0.0003213,LEO
25477,ORBCOMM FM23,1998,100.35,45.0,-,45.01,Inactive,1,LEO,Eastern Range Airspace,ORBCOMM,Commercial,Communications,Pegasus,1 25477U 98053C   24063.12779431  .00001361  00000+0  52225-3 0  9998,2 25477  45.0106 338.5835 0002596   2.1015 357.9843 14.35039915329989,14.35039915,0.0002596,LEO
25416,ORBCOMM FM20,1998,100.35,45.0,+,44.99,Active,1,LEO,Eastern Range Airspace,ORBCOMM,Commercial,Communications,Pegasus,1 25416U 98046D   24062.60079387  .00001164  00000+0  45486-3 0  9990,2 25416  44.9931 250.5279 0000417 104.9747 255.1146 14.34935492336475,14.34935492,4.17e-05,LEO
25420,ORBCOMM FM13,1998,100.35,45.0,+,45.0,Active,1,LEO,Eastern Range Airspace,ORBCOMM,Commercial,Communications,Pegasus,1 25420U 98046H   24062.66213436  .00001325  00000+0  50975-3 0  9994,2 25420  44.9967 254.1029 0004580  75.4313 284.7042 14.35040587335440,14.35040587,0.000458,LEO
